start=new Date('2021-12-14T00:00:00.000Z').valueOf();
sats=[{"EPOCH":"2021-12-13T19:34:41.406528","MEAN_MOTION_DOT":"0.00003954","ECCENTRICITY":"0.00016430","PERIOD":"95.592","ELEMENT_SET_NO":"999","TIME_SYSTEM":"UTC","OBJECT_ID":"2020-012AC","GP_ID":"191657502","TLE_LINE1":"1 45204U 20012AC  21347.81575702  .00003954  00000-0  28415-3 0  9996","COUNTRY_CODE":"US","INCLINATION":"53.0559","PERIAPSIS":"546.064","APOAPSIS":"548.339","CLASSIFICATION_TYPE":"U","SITE":"AFETR","LAUNCH_DATE":"2020-02-17","REF_FRAME":"TEME","SEMIMAJOR_AXIS":"6925.337","FILE":"3239585","CENTER_NAME":"EARTH","NORAD_CAT_ID":"45204","DECAY_DATE":null,"OBJECT_NAME":"STARLINK-1206","MEAN_MOTION_DDOT":"0.0000000000000","MEAN_ANOMALY":"274.1261","MEAN_ELEMENT_THEORY":"SGP4","ARG_OF_PERICENTER":"85.9916","RA_OF_ASC_NODE":"130.7929","EPHEMERIS_TYPE":"0","BSTAR":"0.00028415000000","MEAN_MOTION":"15.06403906","TLE_LINE2":"2 45204  53.0559 130.7929 0001643  85.9916 274.1261 15.06403906101983","OBJECT_TYPE":"PAYLOAD","RCS_SIZE":"LARGE","REV_AT_EPOCH":"10198"},{"MEAN_ANOMALY":"265.7051","MEAN_ELEMENT_THEORY":"SGP4","MEAN_MOTION_DDOT":"0.0000000000000","OBJECT_NAME":"STARLINK-1208","ARG_OF_PERICENTER":"94.4085","RA_OF_ASC_NODE":"130.6988","EPHEMERIS_TYPE":"0","BSTAR":"0.00005779800000","REV_AT_EPOCH":"10199","RCS_SIZE":"LARGE","MEAN_MOTION":"15.06394391","OBJECT_TYPE":"PAYLOAD","TLE_LINE2":"2 45205  53.0538 130.6988 0001283  94.4085 265.7051 15.06394391101998","SEMIMAJOR_AXIS":"6925.366","LAUNCH_DATE":"2020-02-17","REF_FRAME":"TEME","FILE":"3239585","NORAD_CAT_ID":"45205","CENTER_NAME":"EARTH","DECAY_DATE":null,"APOAPSIS":"548.119","PERIAPSIS":"546.342","CLASSIFICATION_TYPE":"U","INCLINATION":"53.0538","SITE":"AFETR","EPOCH":"2021-12-13T20:06:34.008768","MEAN_MOTION_DOT":"0.00000579","PERIOD":"95.592","ECCENTRICITY":"0.00012830","ELEMENT_SET_NO":"999","TLE_LINE1":"1 45205U 20012AD  21347.83789362  .00000579  00000-0  57798-4 0  9995","COUNTRY_CODE":"US","TIME_SYSTEM":"UTC","GP_ID":"191657753","OBJECT_ID":"2020-012AD"},{"INCLINATION":"53.0555","CLASSIFICATION_TYPE":"U","APOAPSIS":"548.288","PERIAPSIS":"546.178","SITE":"AFETR","MEAN_MOTION_DOT":"0.00000851","EPOCH":"2021-12-13T17:35:15.584928","ECCENTRICITY":"0.00015230","PERIOD":"95.593","ELEMENT_SET_NO":"999","GP_ID":"191658004","OBJECT_ID":"2020-012AE","TIME_SYSTEM":"UTC","COUNTRY_CODE":"US","TLE_LINE1":"1 45206U 20012AE  21347.73281927  .00000851  00000-0  76007-4 0  9996","OBJECT_NAME":"STARLINK-1209","MEAN_MOTION_DDOT":"0.0000000000000","MEAN_ELEMENT_THEORY":"SGP4","MEAN_ANOMALY":"262.2514","EPHEMERIS_TYPE":"0","ARG_OF_PERICENTER":"97.8648","RA_OF_ASC_NODE":"111.1882","BSTAR":"0.00007600700000","OBJECT_TYPE":"PAYLOAD","TLE_LINE2":"2 45206  53.0555 111.1882 0001523  97.8648 262.2514 15.06393590101282","MEAN_MOTION":"15.06393590","RCS_SIZE":"LARGE","REV_AT_EPOCH":"10128","REF_FRAME":"TEME","LAUNCH_DATE":"2020-02-17","SEMIMAJOR_AXIS":"6925.368","FILE":"3239585","CENTER_NAME":"EARTH","NORAD_CAT_ID":"45206","DECAY_DATE":null},{"INCLINATION":"53.0540","APOAPSIS":"548.437","PERIAPSIS":"546.088","CLASSIFICATION_TYPE":"U","SITE":"AFETR","ELEMENT_SET_NO":"999","TIME_SYSTEM":"UTC","OBJECT_ID":"2020-012AF","GP_ID":"191658756","TLE_LINE1":"1 45207U 20012AF  21347.85999913  .00000522  00000-0  53964-4 0  9993","COUNTRY_CODE":"US","EPOCH":"2021-12-13T20:38:23.924832","MEAN_MOTION_DOT":"0.00000522","ECCENTRICITY":"0.00016960","PERIOD":"95.593","BSTAR":"0.00005396400000","MEAN_MOTION":"15.06384043","TLE_LINE2":"2 45207  53.0540 130.6004 0001696  95.0510 265.0673 15.06384043101974","OBJECT_TYPE":"PAYLOAD","RCS_SIZE":"LARGE","REV_AT_EPOCH":"10197","OBJECT_NAME":"STARLINK-1210","MEAN_MOTION_DDOT":"0.0000000000000","MEAN_ELEMENT_THEORY":"SGP4","MEAN_ANOMALY":"265.0673","RA_OF_ASC_NODE":"130.6004","ARG_OF_PERICENTER":"95.0510","EPHEMERIS_TYPE":"0","CENTER_NAME":"EARTH","NORAD_CAT_ID":"45207","DECAY_DATE":null,"LAUNCH_DATE":"2020-02-17","REF_FRAME":"TEME","SEMIMAJOR_AXIS":"6925.397","FILE":"3239585"},{"SITE":"AFETR","APOAPSIS":"551.036","PERIAPSIS":"548.358","CLASSIFICATION_TYPE":"U","INCLINATION":"52.9989","TLE_LINE1":"1 45208U 20012AG  21347.78579306  .00000614  00000-0  61277-4 0  9994","COUNTRY_CODE":"US","TIME_SYSTEM":"UTC","OBJECT_ID":"2020-012AG","GP_ID":"191657003","ELEMENT_SET_NO":"999","PERIOD":"95.644","ECCENTRICITY":"0.00019330","EPOCH":"2021-12-13T18:51:32.520384","MEAN_MOTION_DOT":"0.00000614","RCS_SIZE":"LARGE","REV_AT_EPOCH":"10187","MEAN_MOTION":"15.05590117","TLE_LINE2":"2 45208  52.9989 130.9327 0001933  97.4503 262.6705 15.05590117101871","OBJECT_TYPE":"PAYLOAD","BSTAR":"0.00006127700000","RA_OF_ASC_NODE":"130.9327","ARG_OF_PERICENTER":"97.4503","EPHEMERIS_TYPE":"0","MEAN_ANOMALY":"262.6705","MEAN_ELEMENT_THEORY":"SGP4","OBJECT_NAME":"STARLINK-1211","MEAN_MOTION_DDOT":"0.0000000000000","DECAY_DATE":null,"NORAD_CAT_ID":"45208","CENTER_NAME":"EARTH","FILE":"3239585","SEMIMAJOR_AXIS":"6927.832","LAUNCH_DATE":"2020-02-17","REF_FRAME":"TEME"},{"TLE_LINE1":"1 45209U 20012AH  21347.54182519  .00027071  00000-0  16867-3 0  9995","COUNTRY_CODE":"US","TIME_SYSTEM":"UTC","OBJECT_ID":"2020-012AH","GP_ID":"191634162","ELEMENT_SET_NO":"999","PERIOD":"91.327","ECCENTRICITY":"0.00028070","EPOCH":"2021-12-13T13:00:13.696416","MEAN_MOTION_DOT":"0.00027071","SITE":"AFETR","PERIAPSIS":"337.770","APOAPSIS":"341.541","CLASSIFICATION_TYPE":"U","INCLINATION":"53.0535","DECAY_DATE":null,"NORAD_CAT_ID":"45209","CENTER_NAME":"EARTH","FILE":"3239404","SEMIMAJOR_AXIS":"6717.790","LAUNCH_DATE":"2020-02-17","REF_FRAME":"TEME","REV_AT_EPOCH":"10209","RCS_SIZE":"LARGE","MEAN_MOTION":"15.76750916","TLE_LINE2":"2 45209  53.0535  52.6907 0002807  18.3518 341.7602 15.76750916102097","OBJECT_TYPE":"PAYLOAD","BSTAR":"0.00016867000000","RA_OF_ASC_NODE":"52.6907","ARG_OF_PERICENTER":"18.3518","EPHEMERIS_TYPE":"0","MEAN_ANOMALY":"341.7602","MEAN_ELEMENT_THEORY":"SGP4","OBJECT_NAME":"STARLINK-1218","MEAN_MOTION_DDOT":"0.0000000000000"},{"SITE":"AFETR","INCLINATION":"53.0542","CLASSIFICATION_TYPE":"U","PERIAPSIS":"545.857","APOAPSIS":"548.538","ECCENTRICITY":"0.00019350","PERIOD":"95.592","MEAN_MOTION_DOT":"0.00000510","EPOCH":"2021-12-13T20:43:41.218464","GP_ID":"191658504","OBJECT_ID":"2020-012AJ","TIME_SYSTEM":"UTC","COUNTRY_CODE":"US","TLE_LINE1":"1 45210U 20012AJ  21347.86367151  .00000510  00000-0  53137-4 0  9990","ELEMENT_SET_NO":"999","EPHEMERIS_TYPE":"0","RA_OF_ASC_NODE":"130.5996","ARG_OF_PERICENTER":"96.4747","MEAN_MOTION_DDOT":"0.0000000000000","OBJECT_NAME":"STARLINK-1219","MEAN_ELEMENT_THEORY":"SGP4","MEAN_ANOMALY":"263.6462","TLE_LINE2":"2 45210  53.0542 130.5996 0001935  96.4747 263.6462 15.06405241101864","OBJECT_TYPE":"PAYLOAD","MEAN_MOTION":"15.06405241","RCS_SIZE":"LARGE","REV_AT_EPOCH":"10186","BSTAR":"0.00005313700000","FILE":"3239585","REF_FRAME":"TEME","LAUNCH_DATE":"2020-02-17","SEMIMAJOR_AXIS":"6925.332","DECAY_DATE":null,"CENTER_NAME":"EARTH","NORAD_CAT_ID":"45210"},{"TIME_SYSTEM":"UTC","OBJECT_ID":"2020-012AL","GP_ID":"191658257","TLE_LINE1":"1 45212U 20012AL  21347.83052406  .00000365  00000-0  43435-4 0  9991","COUNTRY_CODE":"US","ELEMENT_SET_NO":"999","ECCENTRICITY":"0.00019810","PERIOD":"95.593","EPOCH":"2021-12-13T19:55:57.278784","MEAN_MOTION_DOT":"0.00000365","SITE":"AFETR","INCLINATION":"53.0529","PERIAPSIS":"545.864","APOAPSIS":"548.607","CLASSIFICATION_TYPE":"U","DECAY_DATE":null,"CENTER_NAME":"EARTH","NORAD_CAT_ID":"45212","FILE":"3239585","LAUNCH_DATE":"2020-02-17","REF_FRAME":"TEME","SEMIMAJOR_AXIS":"6925.370","MEAN_MOTION":"15.06392844","TLE_LINE2":"2 45212  53.0529 130.7408 0001981  92.1148 268.0068 15.06392844101922","OBJECT_TYPE":"PAYLOAD","REV_AT_EPOCH":"10192","RCS_SIZE":"LARGE","BSTAR":"0.00004343500000","RA_OF_ASC_NODE":"130.7408","ARG_OF_PERICENTER":"92.1148","EPHEMERIS_TYPE":"0","OBJECT_NAME":"STARLINK-1231","MEAN_MOTION_DDOT":"0.0000000000000","MEAN_ANOMALY":"268.0068","MEAN_ELEMENT_THEORY":"SGP4"},{"ARG_OF_PERICENTER":"67.5429","RA_OF_ASC_NODE":"130.7381","EPHEMERIS_TYPE":"0","MEAN_MOTION_DDOT":"0.0000000000000","OBJECT_NAME":"STARLINK-1232","MEAN_ELEMENT_THEORY":"SGP4","MEAN_ANOMALY":"292.5748","MEAN_MOTION":"15.06385526","OBJECT_TYPE":"PAYLOAD","TLE_LINE2":"2 45213  53.0551 130.7381 0001776  67.5429 292.5748 15.06385526101979","REV_AT_EPOCH":"10197","RCS_SIZE":"LARGE","BSTAR":"0.00007732500000","FILE":"3239585","LAUNCH_DATE":"2020-02-17","REF_FRAME":"TEME","SEMIMAJOR_AXIS":"6925.393","DECAY_DATE":null,"CENTER_NAME":"EARTH","NORAD_CAT_ID":"45213","SITE":"AFETR","INCLINATION":"53.0551","PERIAPSIS":"546.028","APOAPSIS":"548.488","CLASSIFICATION_TYPE":"U","ECCENTRICITY":"0.00017760","PERIOD":"95.593","EPOCH":"2021-12-13T20:01:16.551840","MEAN_MOTION_DOT":"0.00000870","TIME_SYSTEM":"UTC","OBJECT_ID":"2020-012AM","GP_ID":"191657503","TLE_LINE1":"1 45213U 20012AM  21347.83421935  .00000870  00000-0  77325-4 0  9995","COUNTRY_CODE":"US","ELEMENT_SET_NO":"999"},{"MEAN_MOTION_DOT":"0.00000773","EPOCH":"2021-12-13T16:07:40.068192","PERIOD":"95.592","ECCENTRICITY":"0.00016410","ELEMENT_SET_NO":"999","COUNTRY_CODE":"US","TLE_LINE1":"1 45214U 20012AN  21347.67199153  .00000773  00000-0  70786-4 0  9998","GP_ID":"191657754","OBJECT_ID":"2020-012AN","TIME_SYSTEM":"UTC","CLASSIFICATION_TYPE":"U","APOAPSIS":"548.334","PERIAPSIS":"546.061","INCLINATION":"53.0553","SITE":"AFETR","SEMIMAJOR_AXIS":"6925.333","REF_FRAME":"TEME","LAUNCH_DATE":"2020-02-17","FILE":"3239585","NORAD_CAT_ID":"45214","CENTER_NAME":"EARTH","DECAY_DATE":null,"MEAN_ANOMALY":"273.5929","MEAN_ELEMENT_THEORY":"SGP4","OBJECT_NAME":"STARLINK-1233","MEAN_MOTION_DDOT":"0.0000000000000","EPHEMERIS_TYPE":"0","ARG_OF_PERICENTER":"86.5247","RA_OF_ASC_NODE":"131.4446","BSTAR":"0.00007078600000","RCS_SIZE":"LARGE","REV_AT_EPOCH":"10194","OBJECT_TYPE":"PAYLOAD","TLE_LINE2":"2 45214  53.0553 131.4446 0001641  86.5247 273.5929 15.06405170101947","MEAN_MOTION":"15.06405170"}];
